start=new Date('2021-10-10T00:00:00.000Z').valueOf();
sats=[{"LAUNCH_DATE":"2020-11-25","ECCENTRICITY":"0.00012150","OBJECT_NAME":"STARLINK-1812","DECAY_DATE":null,"PERIAPSIS":"546.392","REV_AT_EPOCH":"4915","FILE":"3153295","TLE_LINE2":"2 47126  53.0546 338.8320 0001215  84.2170 275.8957 15.06393525 49154","NORAD_CAT_ID":"47126","REF_FRAME":"TEME","MEAN_MOTION_DOT":"0.00000501","CLASSIFICATION_TYPE":"U","CENTER_NAME":"EARTH","MEAN_ANOMALY":"275.8957","MEAN_MOTION_DDOT":"0.0000000000000","ARG_OF_PERICENTER":"84.2170","RA_OF_ASC_NODE":"338.8320","ELEMENT_SET_NO":"999","OBJECT_TYPE":"PAYLOAD","EPHEMERIS_TYPE":"0","MEAN_MOTION":"15.06393525","PERIOD":"95.593","EPOCH":"2021-10-09T13:03:00.104544","TIME_SYSTEM":"UTC","GP_ID":"186626816","SITE":"AFETR","OBJECT_ID":"2020-088E","RCS_SIZE":"LARGE","INCLINATION":"53.0546","APOAPSIS":"548.075","MEAN_ELEMENT_THEORY":"SGP4","COUNTRY_CODE":"US","SEMIMAJOR_AXIS":"6925.368","BSTAR":"0.00005254800000","TLE_LINE1":"1 47126U 20088E   21282.54375121  .00000501  00000-0  52548-4 0  9995"},{"MEAN_MOTION_DDOT":"0.0000000000000","MEAN_ANOMALY":"276.3363","CENTER_NAME":"EARTH","ARG_OF_PERICENTER":"83.8312","MEAN_MOTION_DOT":"-0.00000464","TLE_LINE2":"2 47128  53.0542 319.0059 0006024  83.8312 276.3363 15.06395883 49121","NORAD_CAT_ID":"47128","REF_FRAME":"TEME","CLASSIFICATION_TYPE":"U","REV_AT_EPOCH":"4912","PERIAPSIS":"543.054","FILE":"3153808","LAUNCH_DATE":"2020-11-25","DECAY_DATE":null,"OBJECT_NAME":"STARLINK-1837","ECCENTRICITY":"0.00060240","MEAN_ELEMENT_THEORY":"SGP4","COUNTRY_CODE":"US","SEMIMAJOR_AXIS":"6925.361","TLE_LINE1":"1 47128U 20088G   21282.50138217 -.00000464  00000-0 -12144-4 0  9994","BSTAR":"-0.00001214400000","SITE":"AFETR","OBJECT_ID":"2020-088G","RCS_SIZE":"LARGE","INCLINATION":"53.0542","GP_ID":"186728022","APOAPSIS":"551.398","MEAN_MOTION":"15.06395883","PERIOD":"95.592","TIME_SYSTEM":"UTC","EPOCH":"2021-10-09T12:01:59.419488","RA_OF_ASC_NODE":"319.0059","EPHEMERIS_TYPE":"0","OBJECT_TYPE":"PAYLOAD","ELEMENT_SET_NO":"999"},{"RA_OF_ASC_NODE":"328.5899","EPHEMERIS_TYPE":"0","OBJECT_TYPE":"PAYLOAD","ELEMENT_SET_NO":"999","MEAN_MOTION":"15.06404274","PERIOD":"95.592","TIME_SYSTEM":"UTC","EPOCH":"2021-10-09T14:18:37.784160","RCS_SIZE":"LARGE","OBJECT_ID":"2020-088H","INCLINATION":"53.0540","SITE":"AFETR","GP_ID":"186729277","APOAPSIS":"548.066","COUNTRY_CODE":"US","MEAN_ELEMENT_THEORY":"SGP4","TLE_LINE1":"1 47129U 20088H   21282.59627065  .00001358  00000-0  11001-3 0  9999","BSTAR":"0.00011001000000","SEMIMAJOR_AXIS":"6925.335","LAUNCH_DATE":"2020-11-25","DECAY_DATE":null,"ECCENTRICITY":"0.00012500","OBJECT_NAME":"STARLINK-1838","REV_AT_EPOCH":"4900","PERIAPSIS":"546.335","FILE":"3153808","MEAN_MOTION_DOT":"0.00001358","REF_FRAME":"TEME","NORAD_CAT_ID":"47129","TLE_LINE2":"2 47129  53.0540 328.5899 0001250  67.6425 292.4696 15.06404274 49008","CLASSIFICATION_TYPE":"U","MEAN_MOTION_DDOT":"0.0000000000000","CENTER_NAME":"EARTH","MEAN_ANOMALY":"292.4696","ARG_OF_PERICENTER":"67.6425"},{"CENTER_NAME":"EARTH","MEAN_ANOMALY":"284.1716","MEAN_MOTION_DDOT":"0.0000000000000","ARG_OF_PERICENTER":"75.9439","NORAD_CAT_ID":"47130","TLE_LINE2":"2 47130  53.0552 348.0625 0001495  75.9439 284.1716 15.06389708 48739","REF_FRAME":"TEME","MEAN_MOTION_DOT":"-0.00000723","CLASSIFICATION_TYPE":"U","PERIAPSIS":"546.210","REV_AT_EPOCH":"4873","FILE":"3153808","LAUNCH_DATE":"2020-11-25","OBJECT_NAME":"STARLINK-1839","ECCENTRICITY":"0.00014950","DECAY_DATE":null,"MEAN_ELEMENT_THEORY":"SGP4","COUNTRY_CODE":"US","SEMIMAJOR_AXIS":"6925.380","BSTAR":"-0.00002963900000","TLE_LINE1":"1 47130U 20088J   21282.71238907 -.00000723  00000-0 -29639-4 0  9992","GP_ID":"186729025","SITE":"AFETR","RCS_SIZE":"LARGE","INCLINATION":"53.0552","OBJECT_ID":"2020-088J","APOAPSIS":"548.280","PERIOD":"95.593","MEAN_MOTION":"15.06389708","EPOCH":"2021-10-09T17:05:50.415648","TIME_SYSTEM":"UTC","RA_OF_ASC_NODE":"348.0625","ELEMENT_SET_NO":"999","OBJECT_TYPE":"PAYLOAD","EPHEMERIS_TYPE":"0"},{"FILE":"3153808","PERIAPSIS":"432.736","REV_AT_EPOCH":"4940","OBJECT_NAME":"STARLINK-1840","ECCENTRICITY":"0.00095650","DECAY_DATE":null,"LAUNCH_DATE":"2020-11-25","ARG_OF_PERICENTER":"4.9772","CENTER_NAME":"EARTH","MEAN_ANOMALY":"355.1326","MEAN_MOTION_DDOT":"0.0000000000000","CLASSIFICATION_TYPE":"U","REF_FRAME":"TEME","NORAD_CAT_ID":"47131","TLE_LINE2":"2 47131  53.0499 301.3433 0009565   4.9772 355.1326 15.42323097 49407","MEAN_MOTION_DOT":"0.00032973","EPOCH":"2021-10-09T18:44:06.113184","TIME_SYSTEM":"UTC","PERIOD":"93.366","MEAN_MOTION":"15.42323097","ELEMENT_SET_NO":"999","EPHEMERIS_TYPE":"0","OBJECT_TYPE":"PAYLOAD","RA_OF_ASC_NODE":"301.3433","BSTAR":"0.00075864000000","TLE_LINE1":"1 47131U 20088K   21282.78062631  .00032973  00000-0  75864-3 0  9999","SEMIMAJOR_AXIS":"6817.392","COUNTRY_CODE":"US","MEAN_ELEMENT_THEORY":"SGP4","APOAPSIS":"445.778","GP_ID":"186728277","OBJECT_ID":"2020-088K","RCS_SIZE":"LARGE","INCLINATION":"53.0499","SITE":"AFETR"},{"MEAN_MOTION":"15.06393636","PERIOD":"95.593","TIME_SYSTEM":"UTC","EPOCH":"2021-10-09T12:32:29.392224","RA_OF_ASC_NODE":"329.0652","OBJECT_TYPE":"PAYLOAD","EPHEMERIS_TYPE":"0","ELEMENT_SET_NO":"999","COUNTRY_CODE":"US","MEAN_ELEMENT_THEORY":"SGP4","BSTAR":"0.00002206300000","TLE_LINE1":"1 47133U 20088M   21282.52256241  .00000047  00000-0  22063-4 0  9996","SEMIMAJOR_AXIS":"6925.368","INCLINATION":"53.0565","RCS_SIZE":"LARGE","OBJECT_ID":"2020-088M","SITE":"AFETR","GP_ID":"186728522","APOAPSIS":"547.739","REV_AT_EPOCH":"4898","PERIAPSIS":"546.728","FILE":"3153808","LAUNCH_DATE":"2020-11-25","DECAY_DATE":null,"ECCENTRICITY":"0.00007300","OBJECT_NAME":"STARLINK-1843","MEAN_MOTION_DDOT":"0.0000000000000","CENTER_NAME":"EARTH","MEAN_ANOMALY":"232.1434","ARG_OF_PERICENTER":"127.9621","MEAN_MOTION_DOT":"0.00000047","REF_FRAME":"TEME","TLE_LINE2":"2 47133  53.0565 329.0652 0000730 127.9621 232.1434 15.06393636 48989","NORAD_CAT_ID":"47133","CLASSIFICATION_TYPE":"U"},{"MEAN_ELEMENT_THEORY":"SGP4","COUNTRY_CODE":"US","SEMIMAJOR_AXIS":"6925.334","TLE_LINE1":"1 47134U 20088N   21282.42948478  .00000222  00000-0  33873-4 0  9992","BSTAR":"0.00003387300000","GP_ID":"186728778","SITE":"AFETR","INCLINATION":"53.0551","RCS_SIZE":"LARGE","OBJECT_ID":"2020-088N","APOAPSIS":"550.854","PERIOD":"95.592","MEAN_MOTION":"15.06404759","EPOCH":"2021-10-09T10:18:27.484992","TIME_SYSTEM":"UTC","RA_OF_ASC_NODE":"339.3452","ELEMENT_SET_NO":"999","OBJECT_TYPE":"PAYLOAD","EPHEMERIS_TYPE":"0","CENTER_NAME":"EARTH","MEAN_ANOMALY":"320.0845","MEAN_MOTION_DDOT":"0.0000000000000","ARG_OF_PERICENTER":"40.0533","NORAD_CAT_ID":"47134","TLE_LINE2":"2 47134  53.0551 339.3452 0005278  40.0533 320.0845 15.06404759 48832","REF_FRAME":"TEME","MEAN_MOTION_DOT":"0.00000222","CLASSIFICATION_TYPE":"U","PERIAPSIS":"543.544","REV_AT_EPOCH":"4883","FILE":"3153808","LAUNCH_DATE":"2020-11-25","ECCENTRICITY":"0.00052780","OBJECT_NAME":"STARLINK-1844","DECAY_DATE":null},{"PERIAPSIS":"546.374","REV_AT_EPOCH":"4898","FILE":"3153808","LAUNCH_DATE":"2020-11-25","ECCENTRICITY":"0.00011990","OBJECT_NAME":"STARLINK-1845","DECAY_DATE":null,"CENTER_NAME":"EARTH","MEAN_ANOMALY":"272.3951","MEAN_MOTION_DDOT":"0.0000000000000","ARG_OF_PERICENTER":"87.7175","NORAD_CAT_ID":"47135","TLE_LINE2":"2 47135  53.0568 328.9456 0001199  87.7175 272.3951 15.06403038 48989","REF_FRAME":"TEME","MEAN_MOTION_DOT":"0.00000409","CLASSIFICATION_TYPE":"U","MEAN_MOTION":"15.06403038","PERIOD":"95.592","EPOCH":"2021-10-09T12:21:51.558048","TIME_SYSTEM":"UTC","RA_OF_ASC_NODE":"328.9456","ELEMENT_SET_NO":"999","OBJECT_TYPE":"PAYLOAD","EPHEMERIS_TYPE":"0","MEAN_ELEMENT_THEORY":"SGP4","COUNTRY_CODE":"US","SEMIMAJOR_AXIS":"6925.339","BSTAR":"0.00004631200000","TLE_LINE1":"1 47135U 20088P   21282.51518007  .00000409  00000-0  46312-4 0  9993","GP_ID":"186729525","SITE":"AFETR","OBJECT_ID":"2020-088P","RCS_SIZE":"LARGE","INCLINATION":"53.0568","APOAPSIS":"548.035"},{"COUNTRY_CODE":"US","MEAN_ELEMENT_THEORY":"SGP4","BSTAR":"-0.00010190000000","TLE_LINE1":"1 47136U 20088Q   21282.58061641 -.00001799  00000-0 -10190-3 0  9997","SEMIMAJOR_AXIS":"6925.362","OBJECT_ID":"2020-088Q","RCS_SIZE":"LARGE","INCLINATION":"53.0542","SITE":"AFETR","GP_ID":"186727778","APOAPSIS":"547.971","PERIOD":"95.592","MEAN_MOTION":"15.06395681","TIME_SYSTEM":"UTC","EPOCH":"2021-10-09T13:56:05.257824","RA_OF_ASC_NODE":"338.6575","EPHEMERIS_TYPE":"0","OBJECT_TYPE":"PAYLOAD","ELEMENT_SET_NO":"999","MEAN_MOTION_DDOT":"0.0000000000000","MEAN_ANOMALY":"266.8813","CENTER_NAME":"EARTH","ARG_OF_PERICENTER":"93.2299","MEAN_MOTION_DOT":"-0.00001799","REF_FRAME":"TEME","NORAD_CAT_ID":"47136","TLE_LINE2":"2 47136  53.0542 338.6575 0001074  93.2299 266.8813 15.06395681 48858","CLASSIFICATION_TYPE":"U","REV_AT_EPOCH":"4885","PERIAPSIS":"546.483","FILE":"3153808","LAUNCH_DATE":"2020-11-25","DECAY_DATE":null,"OBJECT_NAME":"STARLINK-1846","ECCENTRICITY":"0.00010740"},{"ARG_OF_PERICENTER":"90.9319","MEAN_MOTION_DDOT":"0.0000000000000","CENTER_NAME":"EARTH","MEAN_ANOMALY":"269.1799","CLASSIFICATION_TYPE":"U","MEAN_MOTION_DOT":"-0.00000095","REF_FRAME":"TEME","NORAD_CAT_ID":"47137","TLE_LINE2":"2 47137  53.0551 329.0393 0001127  90.9319 269.1799 15.06390660 48982","FILE":"3153808","REV_AT_EPOCH":"4898","PERIAPSIS":"546.462","DECAY_DATE":null,"OBJECT_NAME":"STARLINK-1849","ECCENTRICITY":"0.00011270","LAUNCH_DATE":"2020-11-25","BSTAR":"0.00001249200000","TLE_LINE1":"1 47137U 20088R   21282.49676556 -.00000095  00000-0  12492-4 0  9990","SEMIMAJOR_AXIS":"6925.377","COUNTRY_CODE":"US","MEAN_ELEMENT_THEORY":"SGP4","APOAPSIS":"548.023","RCS_SIZE":"LARGE","OBJECT_ID":"2020-088R","INCLINATION":"53.0551","SITE":"AFETR","GP_ID":"186728023","TIME_SYSTEM":"UTC","EPOCH":"2021-10-09T11:55:20.544384","MEAN_MOTION":"15.06390660","PERIOD":"95.593","EPHEMERIS_TYPE":"0","OBJECT_TYPE":"PAYLOAD","ELEMENT_SET_NO":"999","RA_OF_ASC_NODE":"329.0393"}];
